KUIPER-00191            
1 67143U 25301L   26011.12596074  .00030541  00000+0  86857-3 0  9995
2 67143  51.8688 343.4439 0006658 178.3792 181.7216 15.35866371  4916
KUIPER-00196            
1 67144U 25301M   26011.17713223  .00030054  00000+0  83601-3 0  9991
2 67144  51.8745 343.0450 0003668 140.4893 219.6362 15.36580463  4896
KUIPER-00204            
1 67145U 25301N   26011.25002315 -.01037828  00000+0 -41904-1 0  9991
2 67145  51.8798 342.8683 0005502 117.2870 178.8357 15.27069328  5013
KUIPER-00210            
1 67146U 25301P   26011.20764009  .00035798  00000+0  10479-2 0  9997
2 67146  51.8614 343.2240 0010572 201.2736 158.7811 15.34850586  5062
KUIPER-00221            
1 67147U 25301Q   26011.24750549  .00048687  00000+0  14499-2 0  9993
2 67147  51.8757 342.7665 0012339 157.6206 202.5320 15.34146652  4902
KUIPER-00232            
1 67148U 25301R   26011.29586055  .00039146  00000+0  10626-2 0  9996
2 67148  51.8755 342.3434 0002165  81.8018 278.3215 15.37215464  4912
KUIPER-00241            
1 67149U 25301S   26011.30335156  .00033477  00000+0  92263-3 0  9992
2 67149  51.8758 342.3899 0002771 134.7039 225.4174 15.36816423  5240
KUIPER-00245            
1 67150U 25301T   26011.25002315 -.00557548  00000+0 -22081-1 0  9997
2 67150  51.8757 342.9743 0007893 175.9630  72.0471 15.27322473  4386
KUIPER-00246            
1 67151U 25301U   26011.30814137  .00035336  00000+0  98118-3 0  9997
2 67151  51.8756 342.4235 0003632 159.5549 200.5584 15.36554536  4932
KUIPER-00247            
1 67152U 25301V   26011.21134253  .00030019  00000+0  89002-3 0  9997
2 67152  51.8641 343.2528 0011170 202.7957 157.2534 15.34529827  4891
KUIPER-00248            
1 67153U 25301W   26011.13394106  .00028808  00000+0  83502-3 0  9996
2 67153  51.8685 343.4950 0008322 190.2800 169.8017 15.35289135  5054
KUIPER-00249            
1 67154U 25301X   26011.13059500  .00029710  00000+0  85079-3 0  9997
2 67154  51.8666 343.4704 0008261 189.8645 170.2180 15.35653859  4889
